ORBCOMM-X               
1 21576U 91050C   25163.10835701  .00000240  00000+0  84171-4 0  9998
2 21576  98.3436 229.8104 0003448 181.5812 178.5368 14.43259374781609
ORBCOMM FM01            
1 23545U 95017A   25162.82938382  .00004141  00000+0  43712-3 0  9999
2 23545  69.9637  87.4948 0005142 292.4150  67.6459 14.90021356611710
ORBCOMM FM02            
1 23546U 95017B   25162.84226178  .00005500  00000+0  56541-3 0  9999
2 23546  69.9647 106.8706 0006463 298.6892  61.3613 14.90866936611363
ORBCOMM FM08            
1 25112U 97084A   25162.79094305  .00000980  00000+0  31404-3 0  9993
2 25112  45.0155  33.7679 0005598 220.6168 139.4266 14.45797011440592
ORBCOMM FM10            
1 25113U 97084B   25162.70216323  .00000884  00000+0  28856-3 0  9991
2 25113  45.0166  36.5649 0004080 180.5970 179.4877 14.45585020615729
ORBCOMM FM11            
1 25114U 97084C   25163.32783354  .00001017  00000+0  32754-3 0  9995
2 25114  45.0153  34.1868 0004918 186.5959 173.4828 14.45337927440802
ORBCOMM FM12            
1 25115U 97084D   25163.35951569  .00001019  00000+0  32802-3 0  9990
2 25115  45.0160  33.7856 0003948 182.3334 177.7499 14.45359813440816
ORBCOMM FM09            
1 25116U 97084E   25162.70016066  .00000816  00000+0  27148-3 0  9994
2 25116  45.0163  37.8755 0005280 168.4612 191.6361 14.45232679440686
